[{"OBJECT_NAME":"STARLINK-30847","OBJECT_ID":"2023-171K","EPOCH":"2026-03-09T22:00:01.999584","MEAN_MOTION":15.26727407,"ECCENTRICITY":0.00014659,"INCLINATION":42.9996,"RA_OF_ASC_NODE":283.9195,"ARG_OF_PERICENTER":290.009,"MEAN_ANOMALY":284.0323,"EPHEMERIS_TYPE":0,"CLASSIFICATION_TYPE":"U","NORAD_CAT_ID":58239,"ELEMENT_SET_NO":999,"REV_AT_EPOCH":578,"BSTAR":0.00086047647,"MEAN_MOTION_DOT":0.00022884,"MEAN_MOTION_DDOT":0},{"OBJECT_NAME":"EDISON-1","OBJECT_ID":"2025-009B","EPOCH":"2026-03-09T19:16:13.822464","MEAN_MOTION":15.29042904,"ECCENTRICITY":0.00043285,"INCLINATION":97.4042,"RA_OF_ASC_NODE":151.6286,"ARG_OF_PERICENTER":306.4185,"MEAN_ANOMALY":53.6655,"EPHEMERIS_TYPE":0,"CLASSIFICATION_TYPE":"U","NORAD_CAT_ID":62610,"ELEMENT_SET_NO":999,"REV_AT_EPOCH":6375,"BSTAR":0.00052814963,"MEAN_MOTION_DOT":0.00014835,"MEAN_MOTION_DDOT":0}]
